{"version": 0.6, "generator": "Overpass API 0.7.59.2 0994154d", "osm3s": {"timestamp_osm_base": "2023-03-21T10:04:22Z", "copyright": "The data included in this document is from www.openstreetmap.org. The data is made available under ODbL."}, "elements": [{"type": "node", "id": 111644327, "lat": 54.9493106, "lon": 10.7023503}, {"type": "node", "id": 111644344, "lat": 54.9526621, "lon": 10.6905992}, {"type": "node", "id": 111644354, "lat": 54.9529861, "lon": 10.6896531}, {"type": "node", "id": 111644377, "lat": 54.9535324, "lon": 10.6882906}, {"type": "node", "id": 111644386, "lat": 54.955121, "lon": 10.6844587}, {"type": "node", "id": 111644404, "lat": 54.9579178, "lon": 10.6777061}, {"type": "node", "id": 111644407, "lat": 54.9582585, "lon": 10.6766307}, {"type": "node", "id": 111644431, "lat": 54.961032, "lon": 10.6652294, "tags": {"created_by": "JOSM"}}, {"type": "node", "id": 111644432, "lat": 54.9615051, "lon": 10.6638166, "tags": {"created_by": "JOSM"}}, {"type": "node", "id": 111644436, "lat": 54.9620482, "lon": 10.6625725, "tags": {"created_by": "JOSM"}}, {"type": "node", "id": 112289371, "lat": 54.9423896, "lon": 10.7486083}, {"type": "node", "id": 202838858, "lat": 54.9427528, "lon": 10.7367918, "tags": {"created_by": "JOSM"}}, {"type": "node", "id": 202838864, "lat": 54.9423708, "lon": 10.7511607}, {"type": "node", "id": 277294350, "lat": 54.9515103, "lon": 10.6946352}, {"type": "node", "id": 277295037, "lat": 54.9575657, "lon": 10.6786083}, {"type": "node", "id": 277295090, "lat": 54.9608421, "lon": 10.6659313}, {"type": "node", "id": 582989555, "lat": 54.9437945, "lon": 10.7213971}, {"type": "node", "id": 583218643, "lat": 54.9443363, "lon": 10.7198313}, {"type": "node", "id": 583218646, "lat": 54.9436645, "lon": 10.7227642}, {"type": "node", "id": 583218647, "lat": 54.9434525, "lon": 10.7240636}, {"type": "node", "id": 583218648, "lat": 54.9433539, "lon": 10.7255747}, {"type": "node", "id": 583218649, "lat": 54.9428628, "lon": 10.7343851}, {"type": "node", "id": 583246283, "lat": 54.9432018, "lon": 10.7278079}, {"type": "node", "id": 583246286, "lat": 54.9433106, "lon": 10.7264981}, {"type": "node", "id": 583246315, "lat": 54.9438701, "lon": 10.7214515}, {"type": "node", "id": 583246317, "lat": 54.9436215, "lon": 10.7227066}, {"type": "node", "id": 583246320, "lat": 54.9434022, "lon": 10.7240329}, {"type": "node", "id": 583246323, "lat": 54.9433235, "lon": 10.7251383}, {"type": "node", "id": 583246325, "lat": 54.9432615, "lon": 10.7264922}, {"type": "node", "id": 583268474, "lat": 54.9438343, "lon": 10.7216135}, {"type": "node", "id": 583268475, "lat": 54.9439325, "lon": 10.7216062}, {"type": "node", "id": 917365858, "lat": 54.9462166, "lon": 10.7132086}, {"type": "node", "id": 1188363722, "lat": 54.9426746, "lon": 10.7397571}, {"type": "node", "id": 1478938515, "lat": 54.9606683, "lon": 10.6666507}, {"type": "node", "id": 2386910677, "lat": 54.9434759, "lon": 10.723551}, {"type": "node", "id": 2386910688, "lat": 54.9446568, "lon": 10.7186652}, {"type": "node", "id": 2386910712, "lat": 54.9433692, "lon": 10.7243636}, {"type": "node", "id": 2386910713, "lat": 54.9435038, "lon": 10.7236766}, {"type": "node", "id": 2386910714, "lat": 54.9436005, "lon": 10.7231273}, {"type": "node", "id": 2386910717, "lat": 54.9434113, "lon": 10.7244915}, {"type": "node", "id": 2393785172, "lat": 54.9623594, "lon": 10.6619489}, {"type": "node", "id": 2453313867, "lat": 54.9501185, "lon": 10.6994818}, {"type": "node", "id": 2453313869, "lat": 54.9585639, "lon": 10.6754614}, {"type": "node", "id": 2958353644, "lat": 54.9457142, "lon": 10.7149422}, {"type": "node", "id": 2958353649, "lat": 54.9430826, "lon": 10.7301797}, {"type": "node", "id": 2958441180, "lat": 54.9571333, "lon": 10.6796548}, {"type": "node", "id": 2958441181, "lat": 54.9539972, "lon": 10.6871452}, {"type": "node", "id": 2958441183, "lat": 54.953655, "lon": 10.6879886}, {"type": "node", "id": 4523342517, "lat": 54.9433051, "lon": 10.7256282}, {"type": "node", "id": 4933365350, "lat": 54.9442391, "lon": 10.7200921}, {"type": "node", "id": 4933365351, "lat": 54.9441204, "lon": 10.7203544}, {"type": "node", "id": 4933365352, "lat": 54.9439217, "lon": 10.7210456}, {"type": "node", "id": 4933365353, "lat": 54.9438478, "lon": 10.7213071}, {"type": "node", "id": 5151327550, "lat": 54.9442545, "lon": 10.7202449}, {"type": "node", "id": 6235056324, "lat": 54.9426373, "lon": 10.7409141}, {"type": "node", "id": 6235056325, "lat": 54.9426022, "lon": 10.7420071}, {"type": "node", "id": 6235056326, "lat": 54.9423817, "lon": 10.7519893}, {"type": "node", "id": 6235056333, "lat": 54.942405, "lon": 10.7537551}, {"type": "node", "id": 6952462829, "lat": 54.9438172, "lon": 10.7217016}, {"type": "node", "id": 6952462830, "lat": 54.9438976, "lon": 10.7217569}, {"type": "node", "id": 7149724482, "lat": 54.943743, "lon": 10.722425}, {"type": "node", "id": 10059803359, "lat": 54.9539507, "lon": 10.6872597}, {"type": "node", "id": 10059803421, "lat": 54.9574818, "lon": 10.6788115}, {"type": "node", "id": 10274240196, "lat": 54.9475302, "lon": 10.7085986}, {"type": "node", "id": 10274240197, "lat": 54.9480844, "lon": 10.7066536}, {"type": "way", "id": 19529573, "nodes": [1478938515, 2453313869, 111644407, 111644404, 277295037, 10059803421, 2958441180, 111644386, 2958441181, 10059803359, 2958441183, 111644377, 111644354, 111644344, 277294350], "tags": {"cycleway": "track", "highway": "primary", "lanes": "2", "maxspeed": "80", "name": "Brovejen", "operator": "Vejdirektoratet", "operator:en": "The Danish Road Directorate", "operator:type": "public", "operator:wikidata": "Q1630101", "operator:wikipedia": "da:Vejdirektoratet", "operator:wikipedia:en": "Vejdirektoratet", "ref": "9", "surface": "asphalt"}}, {"type": "way", "id": 45775383, "nodes": [111644327, 10274240197], "tags": {"bridge": "yes", "bridge:name": "Langelandsbroen", "bridge:structure": "beam", "cycleway": "track", "highway": "primary", "lanes": "2", "layer": "1", "lit": "sunset-sunrise", "maxspeed": "80", "maxweight:signed": "no", "name": "Brovejen", "operator": "Vejdirektoratet", "operator:en": "The Danish Road Directorate", "operator:type": "public", "operator:wikidata": "Q1630101", "operator:wikipedia": "da:Vejdirektoratet", "operator:wikipedia:en": "Vejdirektoratet", "ref": "9", "surface": "asphalt", "wikidata": "Q452518", "wikipedia": "da:Langelandsbroen"}}, {"type": "way", "id": 45818638, "nodes": [6235056333, 6235056326, 202838864, 112289371, 6235056325], "tags": {"cycleway": "lane", "highway": "primary", "lanes": "2", "maxspeed": "80", "name": "Nordre Landevej", "operator": "Vejdirektoratet", "operator:en": "The Danish Road Directorate", "operator:type": "public", "operator:wikidata": "Q1630101", "operator:wikipedia": "da:Vejdirektoratet", "operator:wikipedia:en": "Vejdirektoratet", "ref": "9;305", "source:maxspeed": "DK:rural", "surface": "asphalt"}}, {"type": "way", "id": 45821641, "nodes": [583246283, 583246286], "tags": {"bicycle": "use_sidepath", "foot": "no", "highway": "primary", "lanes": "1", "maxspeed": "70", "name": "Brovejen", "oneway": "yes", "operator": "Vejdirektoratet", "operator:en": "The Danish Road Directorate", "operator:type": "public", "operator:wikidata": "Q1630101", "operator:wikipedia": "da:Vejdirektoratet", "operator:wikipedia:en": "Vejdirektoratet", "ref": "9", "source:maxspeed": "sign", "surface": "asphalt"}}, {"type": "way", "id": 45821642, "nodes": [917365858, 2958353644, 2386910688], "tags": {"cycleway": "track", "highway": "primary", "lanes": "2", "maxspeed": "70", "name": "Brovejen", "operator": "Vejdirektoratet", "operator:en": "The Danish Road Directorate", "operator:type": "public", "operator:wikidata": "Q1630101", "operator:wikipedia": "da:Vejdirektoratet", "operator:wikipedia:en": "Vejdirektoratet", "ref": "9", "surface": "asphalt"}}, {"type": "way", "id": 45821644, "nodes": [583218643, 4933365350, 583246315], "tags": {"bicycle": "use_sidepath", "foot": "no", "highway": "primary", "lanes": "1", "lit": "sunset-sunrise", "maxspeed": "70", "name": "Brovejen", "oneway": "yes", "operator": "Vejdirektoratet", "operator:en": "The Danish Road Directorate", "operator:type": "public", "operator:wikidata": "Q1630101", "operator:wikipedia": "da:Vejdirektoratet", "operator:wikipedia:en": "Vejdirektoratet", "ref": "9", "source:maxspeed": "sign", "surface": "asphalt"}}, {"type": "way", "id": 45823949, "nodes": [583218649, 2958353649, 583246283], "tags": {"cycleway": "lane", "highway": "primary", "lanes": "2", "maxspeed": "70", "name": "Brovejen", "operator": "Vejdirektoratet", "operator:en": "The Danish Road Directorate", "operator:type": "public", "operator:wikidata": "Q1630101", "operator:wikipedia": "da:Vejdirektoratet", "operator:wikipedia:en": "Vejdirektoratet", "ref": "9", "source:maxspeed": "sign", "surface": "asphalt"}}, {"type": "way", "id": 78073312, "nodes": [583246323, 4523342517, 583246325], "tags": {"bicycle": "use_sidepath", "foot": "no", "highway": "primary", "lanes": "2", "lit": "sunset-sunrise", "maxspeed": "70", "name": "Brovejen", "oneway": "yes", "operator": "Vejdirektoratet", "operator:en": "The Danish Road Directorate", "operator:type": "public", "operator:wikidata": "Q1630101", "operator:wikipedia": "da:Vejdirektoratet", "operator:wikipedia:en": "Vejdirektoratet", "ref": "9", "source:maxspeed": "sign", "surface": "asphalt"}}, {"type": "way", "id": 78073378, "nodes": [583218648, 2386910717, 583218647, 2386910713, 2386910714, 583218646, 7149724482], "tags": {"bicycle": "use_sidepath", "foot": "no", "highway": "primary", "lanes": "1", "lit": "sunset-sunrise", "maxspeed": "70", "name": "Brovejen", "oneway": "yes", "operator": "Vejdirektoratet", "operator:en": "The Danish Road Directorate", "operator:type": "public", "operator:wikidata": "Q1630101", "operator:wikipedia": "da:Vejdirektoratet", "operator:wikipedia:en": "Vejdirektoratet", "ref": "9", "source:maxspeed": "sign", "surface": "asphalt"}}, {"type": "way", "id": 134518334, "nodes": [1478938515, 277295090, 111644431, 111644432, 111644436, 2393785172], "tags": {"cycleway": "track", "embankment": "yes", "highway": "primary", "lanes": "2", "maxspeed": "80", "name": "Sundbrovej", "operator": "Vejdirektoratet", "operator:en": "The Danish Road Directorate", "operator:type": "public", "operator:wikidata": "Q1630101", "operator:wikipedia": "da:Vejdirektoratet", "operator:wikipedia:en": "Vejdirektoratet", "ref": "9", "surface": "asphalt"}}, {"type": "way", "id": 237430954, "nodes": [2386910688, 583218643], "tags": {"bicycle": "use_sidepath", "highway": "primary", "lanes": "2", "maxspeed": "80", "name": "Brovejen", "operator": "Vejdirektoratet", "operator:en": "The Danish Road Directorate", "operator:type": "public", "operator:wikidata": "Q1630101", "operator:wikipedia": "da:Vejdirektoratet", "operator:wikipedia:en": "Vejdirektoratet", "ref": "9", "source:maxspeed": "DK:rural", "surface": "asphalt"}}, {"type": "way", "id": 237430957, "nodes": [277294350, 2453313867, 111644327], "tags": {"cycleway": "track", "embankment": "yes", "highway": "primary", "lanes": "2", "maxspeed": "80", "name": "Brovejen", "operator": "Vejdirektoratet", "operator:en": "The Danish Road Directorate", "operator:type": "public", "operator:wikidata": "Q1630101", "operator:wikipedia": "da:Vejdirektoratet", "operator:wikipedia:en": "Vejdirektoratet", "ref": "9", "surface": "asphalt"}}, {"type": "way", "id": 420495890, "nodes": [583268475, 5151327550, 583218643], "tags": {"bicycle": "use_sidepath", "foot": "no", "highway": "primary", "lanes": "1", "lit": "sunset-sunrise", "maxspeed": "70", "name": "Brovejen", "oneway": "yes", "operator": "Vejdirektoratet", "operator:en": "The Danish Road Directorate", "operator:type": "public", "operator:wikidata": "Q1630101", "operator:wikipedia": "da:Vejdirektoratet", "operator:wikipedia:en": "Vejdirektoratet", "ref": "9", "source:maxspeed": "sign", "surface": "asphalt"}}, {"type": "way", "id": 420495891, "nodes": [583268474, 6952462829, 583246317, 2386910677, 583246320, 2386910712, 583246323], "tags": {"bicycle": "use_sidepath", "foot": "no", "highway": "primary", "lanes": "1", "lit": "sunset-sunrise", "maxspeed": "70", "name": "Brovejen", "oneway": "yes", "operator": "Vejdirektoratet", "operator:en": "The Danish Road Directorate", "operator:type": "public", "operator:wikidata": "Q1630101", "operator:wikipedia": "da:Vejdirektoratet", "operator:wikipedia:en": "Vejdirektoratet", "ref": "9", "source:maxspeed": "sign", "surface": "asphalt"}}, {"type": "way", "id": 456009708, "nodes": [583246325, 583246283], "tags": {"bicycle": "use_sidepath", "foot": "no", "highway": "primary", "lanes": "1", "maxspeed": "70", "name": "Brovejen", "oneway": "yes", "operator": "Vejdirektoratet", "operator:en": "The Danish Road Directorate", "operator:type": "public", "operator:wikidata": "Q1630101", "operator:wikipedia": "da:Vejdirektoratet", "operator:wikipedia:en": "Vejdirektoratet", "ref": "9", "source:maxspeed": "sign", "surface": "asphalt"}}, {"type": "way", "id": 464725017, "nodes": [583268474, 583268475], "tags": {"foot": "no", "highway": "primary_link", "lit": "sunset-sunrise", "maxspeed": "80", "oneway": "yes", "source:maxspeed": "DK:rural", "surface": "asphalt"}}, {"type": "way", "id": 502979338, "nodes": [4933365350, 4933365351, 4933365352, 4933365353, 582989555], "tags": {"destination": "Rudk\u00f8bing", "foot": "no", "highway": "primary_link", "lanes": "1", "lit": "sunset-sunrise", "maxspeed": "70", "oneway": "yes", "surface": "asphalt"}}, {"type": "way", "id": 530495380, "nodes": [583246315, 583268474], "tags": {"bicycle": "use_sidepath", "foot": "no", "highway": "primary", "lanes": "1", "lit": "sunset-sunrise", "maxspeed": "70", "name": "Brovejen", "oneway": "yes", "operator": "Vejdirektoratet", "operator:en": "The Danish Road Directorate", "operator:type": "public", "operator:wikidata": "Q1630101", "operator:wikipedia": "da:Vejdirektoratet", "operator:wikipedia:en": "Vejdirektoratet", "ref": "9", "source:maxspeed": "sign", "surface": "asphalt"}}, {"type": "way", "id": 530495381, "nodes": [583268475, 583246315], "tags": {"foot": "no", "highway": "primary_link", "lit": "sunset-sunrise", "maxspeed": "80", "oneway": "yes", "source:maxspeed": "DK:rural", "surface": "asphalt"}}, {"type": "way", "id": 665994406, "nodes": [6235056325, 6235056324, 1188363722, 202838858, 583218649], "tags": {"cycleway": "lane", "highway": "primary", "lanes": "2", "maxspeed": "70", "name": "Nordre Landevej", "operator": "Vejdirektoratet", "operator:en": "The Danish Road Directorate", "operator:type": "public", "operator:wikidata": "Q1630101", "operator:wikipedia": "da:Vejdirektoratet", "operator:wikipedia:en": "Vejdirektoratet", "ref": "9;305", "source:maxspeed": "sign", "surface": "asphalt"}}, {"type": "way", "id": 765529235, "nodes": [7149724482, 6952462830, 583268475], "tags": {"bicycle": "use_sidepath", "foot": "no", "highway": "primary", "lanes": "2", "lit": "sunset-sunrise", "maxspeed": "70", "name": "Brovejen", "oneway": "yes", "operator": "Vejdirektoratet", "operator:en": "The Danish Road Directorate", "operator:type": "public", "operator:wikidata": "Q1630101", "operator:wikipedia": "da:Vejdirektoratet", "operator:wikipedia:en": "Vejdirektoratet", "ref": "9", "source:maxspeed": "sign", "surface": "asphalt", "turn:lanes": "left|none"}}, {"type": "way", "id": 799846474, "nodes": [583246286, 583218648], "tags": {"bicycle": "use_sidepath", "foot": "no", "highway": "primary", "lanes": "1", "lit": "sunset-sunrise", "maxspeed": "70", "name": "Brovejen", "oneway": "yes", "operator": "Vejdirektoratet", "operator:en": "The Danish Road Directorate", "operator:type": "public", "operator:wikidata": "Q1630101", "operator:wikipedia": "da:Vejdirektoratet", "operator:wikipedia:en": "Vejdirektoratet", "ref": "9", "source:maxspeed": "sign", "surface": "asphalt"}}, {"type": "way", "id": 1123443346, "nodes": [10274240196, 917365858], "tags": {"bridge": "yes", "bridge:name": "Langelandsbroen", "bridge:structure": "beam", "cycleway": "track", "highway": "primary", "lanes": "2", "layer": "1", "lit": "sunset-sunrise", "maxspeed": "80", "maxweight:signed": "no", "name": "Brovejen", "operator": "Vejdirektoratet", "operator:en": "The Danish Road Directorate", "operator:type": "public", "operator:wikidata": "Q1630101", "operator:wikipedia": "da:Vejdirektoratet", "operator:wikipedia:en": "Vejdirektoratet", "ref": "9", "surface": "asphalt", "wikidata": "Q452518", "wikipedia": "da:Langelandsbroen"}}, {"type": "way", "id": 1123443347, "nodes": [10274240197, 10274240196], "tags": {"bridge": "yes", "bridge:name": "Langelandsbroen", "bridge:structure": "truss", "cycleway": "track", "highway": "primary", "lanes": "2", "layer": "1", "lit": "sunset-sunrise", "maxspeed": "80", "maxweight:signed": "no", "name": "Brovejen", "operator": "Vejdirektoratet", "operator:en": "The Danish Road Directorate", "operator:type": "public", "operator:wikidata": "Q1630101", "operator:wikipedia": "da:Vejdirektoratet", "operator:wikipedia:en": "Vejdirektoratet", "ref": "9", "surface": "asphalt", "wikidata": "Q452518", "wikipedia": "da:Langelandsbroen"}}]}